STARLINK-30995          
1 58474C 23186B   25280.80743056  .00057217  00000+0  19186-2 0  2809
2 58474  43.0009  32.3167 0002332 342.5963  64.9313 15.30027085    18
STARLINK-30941          
1 58475C 23186C   25280.79145833  .00023740  00000+0  17532-2 0  2804
2 58475  43.0019 178.4907 0001176 273.8184 277.3206 15.02479402    14
STARLINK-30980          
1 58476C 23186D   25280.79215278  .00005943  00000+0  43843-3 0  2806
2 58476  43.0017 178.4422 0001301 263.1744 309.7776 15.02536579    10
STARLINK-30965          
1 58477C 23186E   25280.79493056  .00004373  00000+0  32259-3 0  2804
2 58477  43.0022 165.2381 0001335 263.8703  40.8610 15.02538279    13
STARLINK-30990          
1 58478C 23186F   25280.79562500  .00009804  00000+0  72331-3 0  2805
2 58478  43.0017 178.3803 0001283 262.9464 346.8486 15.02531625    16
STARLINK-30984          
1 58480C 23186H   25280.79493056 -.00028057  00000+0 -20702-2 0  2804
2 58480  43.0015 177.7778 0001268 267.5726 230.8944 15.02565428    15
STARLINK-30956          
1 58481C 23186J   25280.79215278 -.00003689  00000+0 -27216-3 0  2805
2 58481  43.0010 153.5877 0001337 267.4036 127.2256 15.02540691    13
STARLINK-30997          
1 58482C 23186K   25280.79076389 -.00015377  00000+0 -11346-2 0  2807
2 58482  43.0020 177.9891 0001420 267.2796 118.4809 15.02551060    13
STARLINK-30994          
1 58483C 23186L   25280.79631944  .00024723  00000+0  89568-3 0  2807
2 58483  43.0041  43.6277 0001495 264.9498   4.7471 15.27545628    11
STARLINK-30991          
1 58484C 23186M   25280.79562500  .00010711  00000+0  79012-3 0  2804
2 58484  43.0018 177.7289 0001078 271.9234 248.3151 15.02536747    17
STARLINK-30979          
1 58485C 23186N   25280.79493056  .00018677  00000+0  13782-2 0  2804
2 58485  43.0021 178.2980 0001323 262.6461  19.3832 15.02514559    17
STARLINK-31005          
1 58486C 23186P   25280.79493056  .00009265  00000+0  68341-3 0  2800
2 58486  43.0019 178.2542 0001373 265.0945  35.0287 15.02539219    17
STARLINK-30987          
1 58487C 23186Q   25280.79493056 -.00027614  00000+0 -20374-2 0  2804
2 58487  43.0019 178.2101 0001326 268.3456  49.8013 15.02565443    18
STARLINK-31000          
1 58488C 23186R   25280.79562500 -.00030152  00000+0 -22249-2 0  2800
2 58488  43.0019 178.1626 0001342 268.1696  71.7806 15.02564760    17
STARLINK-30993          
1 58489C 23186S   25280.79493056  .00007938  00000+0  58560-3 0  2800
2 58489  43.0018 178.1248 0001376 263.4559  90.7646 15.02535599    11
STARLINK-30978          
1 58490C 23186T   25280.79562500  .00009612  00000+0  70911-3 0  2808
2 58490  43.0019 178.0777 0001221 263.2426 112.7779 15.02533661    10
STARLINK-30953          
1 58491C 23186U   25280.79701389  .00020355  00000+0  73734-3 0  2802
2 58491  43.0026  50.9549 0001707 274.8285 215.3768 15.27554748    18
STARLINK-30986          
1 58492C 23186V   25280.79423611 -.00015500  00000+0 -11437-2 0  2801
2 58492  43.0019 177.9553 0001324 266.3670 156.2131 15.02552447    19
STARLINK-30985          
1 58493C 23186W   25280.79562500  .00006703  00000+0  49443-3 0  2805
2 58493  43.0020 177.9046 0001349 263.1753 184.9735 15.02538904    13
STARLINK-30981          
1 58494C 23186X   25280.78520833 -.00021660  00000+0 -15983-2 0  2800
2 58494  43.0018 177.9172 0001359 267.7338 142.0214 15.02557026    14
STARLINK-31002          
1 58495C 23186Y   25280.79770833  .00010976  00000+0  80974-3 0  2808
2 58495  43.0019 177.8066 0001304 266.5017 228.9872 15.02531773    13
STARLINK-31026          
1 58508C 23191A   25280.78729167 -.00022491  00000+0 -16596-2 0  2807
2 58508  43.0027 217.8898 0001299 267.6915 258.1343 15.02555133    11
STARLINK-31020          
1 58509C 23191B   25280.79145833  .00020599  00000+0  15197-2 0  2802
2 58509  43.0030 218.6786 0001157 259.3303 306.4694 15.02521843    10
STARLINK-30989          
1 58510C 23191C   25280.79701389 -.00028108  00000+0 -20740-2 0  2804
2 58510  43.0031 217.1353 0001279 263.9704 249.6953 15.02563874    14
STARLINK-30968          
1 58511C 23191D   25280.79145833 -.00022422  00000+0 -16544-2 0  2801
2 58511  43.0032 217.1231 0001250 265.8593 235.7454 15.02558961    10
STARLINK-30982          
1 58512C 23191E   25280.79215278 -.00016397  00000+0 -12098-2 0  2807
2 58512  43.0031 217.0796 0001314 268.3088 255.0910 15.02553756    12
STARLINK-30998          
1 58513C 23191F   25280.79215278 -.00017716  00000+0 -13068-2 0  2802
2 58513  43.0024 217.0327 0001267 269.8639 271.5072 15.02565134    15
STARLINK-30983          
1 58514C 23191G   25280.79215278 -.00018529  00000+0 -13663-2 0  2807
2 58514  43.0037 216.4789 0001554 264.5758 151.1656 15.02576321    19
STARLINK-31017          
1 58515C 23191H   25280.79145833  .00055174  00000+0  19976-2 0  2805
2 58515  43.0036  14.6480 0001249 272.1916 148.3261 15.27537469    14
