OBJECT_NAME,OBJECT_ID,EPOCH,MEAN_MOTION,ECCENTRICITY,INCLINATION,RA_OF_ASC_NODE,ARG_OF_PERICENTER,MEAN_ANOMALY,EPHEMERIS_TYPE,CLASSIFICATION_TYPE,NORAD_CAT_ID,ELEMENT_SET_NO,REV_AT_EPOCH,BSTAR,MEAN_MOTION_DOT,MEAN_MOTION_DDOT,RMS,DATA_SOURCE
STARLINK-30995,2023-186B,2025-10-07T19:22:42.000038,15.30027085,0.0002332,43.0009,32.3167,342.5963,64.9313,0,C,58474,280,1,0.0019186,0.00057217,0,0.256,SpaceX-E
STARLINK-30941,2023-186C,2025-10-07T18:59:41.999971,15.02479402,0.0001176,43.0019,178.4907,273.8184,277.3206,0,C,58475,280,1,0.0017532,0.0002374,0,0.264,SpaceX-E
STARLINK-30980,2023-186D,2025-10-07T19:00:42.000019,15.02536579,0.0001301,43.0017,178.4422,263.1744,309.7776,0,C,58476,280,1,0.00043843,5.943e-05,0,0.344,SpaceX-E
STARLINK-30965,2023-186E,2025-10-07T19:04:42.000038,15.02538279,0.0001335,43.0022,165.2381,263.8703,40.861,0,C,58477,280,1,0.00032259,4.3728e-05,0,0.345,SpaceX-E
STARLINK-30990,2023-186F,2025-10-07T19:05:42.000000,15.02531625,0.0001283,43.0017,178.3803,262.9464,346.8486,0,C,58478,280,1,0.00072331,9.8042e-05,0,0.334,SpaceX-E
STARLINK-30984,2023-186H,2025-10-07T19:04:42.000038,15.02565428,0.0001268,43.0015,177.7778,267.5726,230.8944,0,C,58480,280,1,-0.0020702,-0.00028057,0,0.336,SpaceX-E
STARLINK-30956,2023-186J,2025-10-07T19:00:42.000019,15.02540691,0.0001337,43.001,153.5877,267.4036,127.2256,0,C,58481,280,1,-0.00027216,-3.6887e-05,0,0.285,SpaceX-E
STARLINK-30997,2023-186K,2025-10-07T18:58:42.000010,15.0255106,0.000142,43.002,177.9891,267.2796,118.4809,0,C,58482,280,1,-0.0011346,-0.00015377,0,0.354,SpaceX-E
STARLINK-30994,2023-186L,2025-10-07T19:06:41.999962,15.27545628,0.0001495,43.0041,43.6277,264.9498,4.7471,0,C,58483,280,1,0.00089568,0.00024723,0,0.446,SpaceX-E
STARLINK-30991,2023-186M,2025-10-07T19:05:42.000000,15.02536747,0.0001078,43.0018,177.7289,271.9234,248.3151,0,C,58484,280,1,0.00079012,0.00010711,0,0.348,SpaceX-E
STARLINK-30979,2023-186N,2025-10-07T19:04:42.000038,15.02514559,0.0001323,43.0021,178.298,262.6461,19.3832,0,C,58485,280,1,0.0013782,0.00018677,0,0.251,SpaceX-E
STARLINK-31005,2023-186P,2025-10-07T19:04:42.000038,15.02539219,0.0001373,43.0019,178.2542,265.0945,35.0287,0,C,58486,280,1,0.00068341,9.2652e-05,0,0.361,SpaceX-E
STARLINK-30987,2023-186Q,2025-10-07T19:04:42.000038,15.02565443,0.0001326,43.0019,178.2101,268.3456,49.8013,0,C,58487,280,1,-0.0020374,-0.00027614,0,0.382,SpaceX-E
STARLINK-31000,2023-186R,2025-10-07T19:05:42.000000,15.0256476,0.0001342,43.0019,178.1626,268.1696,71.7806,0,C,58488,280,1,-0.0022249,-0.00030152,0,0.31,SpaceX-E
STARLINK-30993,2023-186S,2025-10-07T19:04:42.000038,15.02535599,0.0001376,43.0018,178.1248,263.4559,90.7646,0,C,58489,280,1,0.0005856,7.9381e-05,0,0.336,SpaceX-E
STARLINK-30978,2023-186T,2025-10-07T19:05:42.000000,15.02533661,0.0001221,43.0019,178.0777,263.2426,112.7779,0,C,58490,280,1,0.00070911,9.6122e-05,0,0.344,SpaceX-E
STARLINK-30953,2023-186U,2025-10-07T19:07:42.000010,15.27554748,0.0001707,43.0026,50.9549,274.8285,215.3768,0,C,58491,280,1,0.00073734,0.00020355,0,0.437,SpaceX-E
STARLINK-30986,2023-186V,2025-10-07T19:03:41.999990,15.02552447,0.0001324,43.0019,177.9553,266.367,156.2131,0,C,58492,280,1,-0.0011437,-0.000155,0,0.28,SpaceX-E
STARLINK-30985,2023-186W,2025-10-07T19:05:42.000000,15.02538904,0.0001349,43.002,177.9046,263.1753,184.9735,0,C,58493,280,1,0.00049443,6.7026e-05,0,0.367,SpaceX-E
STARLINK-30981,2023-186X,2025-10-07T18:50:41.999971,15.02557026,0.0001359,43.0018,177.9172,267.7338,142.0214,0,C,58494,280,1,-0.0015983,-0.0002166,0,0.39,SpaceX-E
STARLINK-31002,2023-186Y,2025-10-07T19:08:41.999971,15.02531773,0.0001304,43.0019,177.8066,266.5017,228.9872,0,C,58495,280,1,0.00080974,0.00010976,0,0.351,SpaceX-E
STARLINK-31026,2023-191A,2025-10-07T18:53:42.000029,15.02555133,0.0001299,43.0027,217.8898,267.6915,258.1343,0,C,58508,280,1,-0.0016596,-0.00022491,0,0.404,SpaceX-E
STARLINK-31020,2023-191B,2025-10-07T18:59:41.999971,15.02521843,0.0001157,43.003,218.6786,259.3303,306.4694,0,C,58509,280,1,0.0015197,0.00020599,0,0.253,SpaceX-E
STARLINK-30989,2023-191C,2025-10-07T19:07:42.000010,15.02563874,0.0001279,43.0031,217.1353,263.9704,249.6953,0,C,58510,280,1,-0.002074,-0.00028108,0,0.409,SpaceX-E
STARLINK-30968,2023-191D,2025-10-07T18:59:41.999971,15.02558961,0.000125,43.0032,217.1231,265.8593,235.7454,0,C,58511,280,1,-0.0016544,-0.00022422,0,0.392,SpaceX-E
STARLINK-30982,2023-191E,2025-10-07T19:00:42.000019,15.02553756,0.0001314,43.0031,217.0796,268.3088,255.091,0,C,58512,280,1,-0.0012098,-0.00016397,0,0.364,SpaceX-E
STARLINK-30998,2023-191F,2025-10-07T19:00:42.000019,15.02565134,0.0001267,43.0024,217.0327,269.8639,271.5072,0,C,58513,280,1,-0.0013068,-0.00017716,0,0.331,SpaceX-E
STARLINK-30983,2023-191G,2025-10-07T19:00:42.000019,15.02576321,0.0001554,43.0037,216.4789,264.5758,151.1656,0,C,58514,280,1,-0.0013663,-0.00018529,0,0.341,SpaceX-E
STARLINK-31017,2023-191H,2025-10-07T18:59:41.999971,15.27537469,0.0001249,43.0036,14.648,272.1916,148.3261,0,C,58515,280,1,0.0019976,0.00055174,0,0.249,SpaceX-E
